FENGYUN 1C DEB          
1 31541U 99025BYG 26064.38668101  .00006423  00000+0  10281-2 0  9998
2 31541  98.9870 220.0324 0075705 344.5118  15.3769 14.70259812996374
FENGYUN 1C DEB          
1 31542U 99025BYH 26064.93449601  .00002568  00000+0  11414-2 0  9997
2 31542  98.7215 123.2101 0044389 327.2113  32.6312 14.23299395971232
FENGYUN 1C DEB          
1 31544U 99025BYK 26064.92665089  .00001297  00000+0  69459-3 0  9999
2 31544  98.8175 120.1967 0031948  36.2969 324.0363 14.14583582969335
FENGYUN 1C DEB          
1 31546U 99025BYM 26063.11553983  .00003979  00000+0  19288-2 0  9993
2 31546  98.2340 131.2677 0143033 260.7476  97.7498 14.13694944959383
FENGYUN 1C DEB          
1 31547U 99025BYN 26063.85460741  .00003428  00000+0  15021-2 0  9994
2 31547  99.0798 115.2522 0051364  20.5055 339.8169 14.23663060651853
FENGYUN 1C DEB          
1 31550U 99025BYR 26063.96341837  .00004265  00000+0  10887-2 0  9999
2 31550  98.3160  66.1312 0190821  25.2753 335.7624 14.40653967666381
FENGYUN 1C DEB          
1 31552U 99025BYT 26065.32940434  .00015930  00000+0  40711-2 0  9991
2 31552  98.6213 193.6961 0086143 130.8784 229.9914 14.48302499970854
FENGYUN 1C DEB          
1 31553U 99025BYU 26064.65012025  .00005140  00000+0  19601-2 0  9999
2 31553  98.9951 127.2763 0030228 213.6846 300.1076 14.31007970970952
FENGYUN 1C DEB          
1 31554U 99025BYV 26062.61866498  .00020616  00000+0  48326-2 0  9996
2 31554  98.9071 206.6077 0037535 139.7657 220.6326 14.54103182660319
FENGYUN 1C DEB          
1 31555U 99025BYW 26064.61041445  .00012141  00000+0  29833-2 0  9992
2 31555  99.1123  29.6939 0151903 311.5598  47.2648 14.45692907977602
FENGYUN 1C DEB          
1 31558U 99025BYZ 26064.98754726  .00001380  00000+0  35883-3 0  9994
2 31558  98.7856 327.4516 0211803  15.6121  50.2582 14.38877751986327
FENGYUN 1C DEB          
1 31559U 99025BZA 26064.40065737  .00012274  00000+0  22437-2 0  9993
2 31559  98.8748  29.8458 0053412 301.7244 211.5926 14.65129629987668
FENGYUN 1C DEB          
1 31560U 99025BZB 26061.88521834  .00000116  00000+0  67276-4 0  9993
2 31560  98.5776 100.7810 0121878  76.0343 285.4353 14.21249302977579
FENGYUN 1C DEB          
1 31561U 99025BZC 26065.22885510  .00000851  00000+0  56876-3 0  9999
2 31561  98.7227  62.7404 0055725 310.5948 111.9799 14.02894938963496
FENGYUN 1C DEB          
1 31562U 99025BZD 26062.88878259  .00003576  00000+0  10690-2 0  9991
2 31562  99.2652 226.3438 0056601  45.9538 314.6291 14.42696577981603
FENGYUN 1C DEB          
1 31563U 99025BZE 26065.42084046  .00007626  00000+0  12753-2 0  9990
2 31563  98.9603 231.4128 0112153 180.9002 179.2014 14.66054875997701
