[{"OBJECT_NAME":"FENGYUN 1C DEB","OBJECT_ID":"1999-025BYG","EPOCH":"2026-03-05T09:16:49.239264","MEAN_MOTION":14.70259812,"ECCENTRICITY":0.0075705,"INCLINATION":98.987,"RA_OF_ASC_NODE":220.0324,"ARG_OF_PERICENTER":344.5118,"MEAN_ANOMALY":15.3769,"EPHEMERIS_TYPE":0,"CLASSIFICATION_TYPE":"U","NORAD_CAT_ID":31541,"ELEMENT_SET_NO":999,"REV_AT_EPOCH":99637,"BSTAR":0.0010281,"MEAN_MOTION_DOT":6.423e-5,"MEAN_MOTION_DDOT":0},{"OBJECT_NAME":"FENGYUN 1C DEB","OBJECT_ID":"1999-025BYH","EPOCH":"2026-03-05T22:25:40.455264","MEAN_MOTION":14.23299395,"ECCENTRICITY":0.00443898,"INCLINATION":98.7215,"RA_OF_ASC_NODE":123.2101,"ARG_OF_PERICENTER":327.2113,"MEAN_ANOMALY":32.6312,"EPHEMERIS_TYPE":0,"CLASSIFICATION_TYPE":"U","NORAD_CAT_ID":31542,"ELEMENT_SET_NO":999,"REV_AT_EPOCH":97123,"BSTAR":0.0011414179,"MEAN_MOTION_DOT":2.568e-5,"MEAN_MOTION_DDOT":0},{"OBJECT_NAME":"FENGYUN 1C DEB","OBJECT_ID":"1999-025BYK","EPOCH":"2026-03-05T22:14:22.636896","MEAN_MOTION":14.14583582,"ECCENTRICITY":0.00319486,"INCLINATION":98.8175,"RA_OF_ASC_NODE":120.1967,"ARG_OF_PERICENTER":36.2969,"MEAN_ANOMALY":324.0363,"EPHEMERIS_TYPE":0,"CLASSIFICATION_TYPE":"U","NORAD_CAT_ID":31544,"ELEMENT_SET_NO":999,"REV_AT_EPOCH":96933,"BSTAR":0.00069458642,"MEAN_MOTION_DOT":1.297e-5,"MEAN_MOTION_DDOT":0},{"OBJECT_NAME":"FENGYUN 1C DEB","OBJECT_ID":"1999-025BYM","EPOCH":"2026-03-04T02:46:22.641312","MEAN_MOTION":14.13694944,"ECCENTRICITY":0.01430333,"INCLINATION":98.234,"RA_OF_ASC_NODE":131.2677,"ARG_OF_PERICENTER":260.7476,"MEAN_ANOMALY":97.7498,"EPHEMERIS_TYPE":0,"CLASSIFICATION_TYPE":"U","NORAD_CAT_ID":31546,"ELEMENT_SET_NO":999,"REV_AT_EPOCH":95938,"BSTAR":0.0019288012,"MEAN_MOTION_DOT":3.979e-5,"MEAN_MOTION_DDOT":0},{"OBJECT_NAME":"FENGYUN 1C DEB","OBJECT_ID":"1999-025BYN","EPOCH":"2026-03-04T20:30:38.080224","MEAN_MOTION":14.2366306,"ECCENTRICITY":0.00513645,"INCLINATION":99.0798,"RA_OF_ASC_NODE":115.2522,"ARG_OF_PERICENTER":20.5055,"MEAN_ANOMALY":339.8169,"EPHEMERIS_TYPE":0,"CLASSIFICATION_TYPE":"U","NORAD_CAT_ID":31547,"ELEMENT_SET_NO":999,"REV_AT_EPOCH":65185,"BSTAR":0.0015021399,"MEAN_MOTION_DOT":3.428e-5,"MEAN_MOTION_DDOT":0},{"OBJECT_NAME":"FENGYUN 1C DEB","OBJECT_ID":"1999-025BYR","EPOCH":"2026-03-04T23:07:19.347168","MEAN_MOTION":14.40653967,"ECCENTRICITY":0.01908219,"INCLINATION":98.316,"RA_OF_ASC_NODE":66.1312,"ARG_OF_PERICENTER":25.2753,"MEAN_ANOMALY":335.7624,"EPHEMERIS_TYPE":0,"CLASSIFICATION_TYPE":"U","NORAD_CAT_ID":31550,"ELEMENT_SET_NO":999,"REV_AT_EPOCH":66638,"BSTAR":0.0010886637,"MEAN_MOTION_DOT":4.265e-5,"MEAN_MOTION_DDOT":0},{"OBJECT_NAME":"FENGYUN 1C DEB","OBJECT_ID":"1999-025BYT","EPOCH":"2026-03-06T07:54:20.534976","MEAN_MOTION":14.48302499,"ECCENTRICITY":0.0086143,"INCLINATION":98.6213,"RA_OF_ASC_NODE":193.6961,"ARG_OF_PERICENTER":130.8784,"MEAN_ANOMALY":229.9914,"EPHEMERIS_TYPE":0,"CLASSIFICATION_TYPE":"U","NORAD_CAT_ID":31552,"ELEMENT_SET_NO":999,"REV_AT_EPOCH":97085,"BSTAR":0.0040711181,"MEAN_MOTION_DOT":0.0001593,"MEAN_MOTION_DDOT":0},{"OBJECT_NAME":"FENGYUN 1C DEB","OBJECT_ID":"1999-025BYU","EPOCH":"2026-03-05T15:36:10.389600","MEAN_MOTION":14.3100797,"ECCENTRICITY":0.0030228,"INCLINATION":98.9951,"RA_OF_ASC_NODE":127.2763,"ARG_OF_PERICENTER":213.6846,"MEAN_ANOMALY":300.1076,"EPHEMERIS_TYPE":0,"CLASSIFICATION_TYPE":"U","NORAD_CAT_ID":31553,"ELEMENT_SET_NO":999,"REV_AT_EPOCH":97095,"BSTAR":0.0019601,"MEAN_MOTION_DOT":5.14e-5,"MEAN_MOTION_DDOT":0},{"OBJECT_NAME":"FENGYUN 1C DEB","OBJECT_ID":"1999-025BYV","EPOCH":"2026-03-03T14:50:52.654272","MEAN_MOTION":14.54103182,"ECCENTRICITY":0.0037535,"INCLINATION":98.9071,"RA_OF_ASC_NODE":206.6077,"ARG_OF_PERICENTER":139.7657,"MEAN_ANOMALY":220.6326,"EPHEMERIS_TYPE":0,"CLASSIFICATION_TYPE":"U","NORAD_CAT_ID":31554,"ELEMENT_SET_NO":999,"REV_AT_EPOCH":66031,"BSTAR":0.0048326,"MEAN_MOTION_DOT":0.00020616,"MEAN_MOTION_DDOT":0},{"OBJECT_NAME":"FENGYUN 1C DEB","OBJECT_ID":"1999-025BYW","EPOCH":"2026-03-05T14:38:59.808480","MEAN_MOTION":14.45692907,"ECCENTRICITY":0.0151903,"INCLINATION":99.1123,"RA_OF_ASC_NODE":29.6939,"ARG_OF_PERICENTER":311.5598,"MEAN_ANOMALY":47.2648,"EPHEMERIS_TYPE":0,"CLASSIFICATION_TYPE":"U","NORAD_CAT_ID":31555,"ELEMENT_SET_NO":999,"REV_AT_EPOCH":97760,"BSTAR":0.0029833,"MEAN_MOTION_DOT":0.00012141,"MEAN_MOTION_DDOT":0},{"OBJECT_NAME":"FENGYUN 1C DEB","OBJECT_ID":"1999-025BYZ","EPOCH":"2026-03-05T23:42:04.083264","MEAN_MOTION":14.38877751,"ECCENTRICITY":0.02118032,"INCLINATION":98.7856,"RA_OF_ASC_NODE":327.4516,"ARG_OF_PERICENTER":15.6121,"MEAN_ANOMALY":50.2582,"EPHEMERIS_TYPE":0,"CLASSIFICATION_TYPE":"U","NORAD_CAT_ID":31558,"ELEMENT_SET_NO":999,"REV_AT_EPOCH":98632,"BSTAR":0.00035883422,"MEAN_MOTION_DOT":1.38e-5,"MEAN_MOTION_DDOT":0},{"OBJECT_NAME":"FENGYUN 1C DEB","OBJECT_ID":"1999-025BZA","EPOCH":"2026-03-05T09:36:56.796768","MEAN_MOTION":14.65129629,"ECCENTRICITY":0.0053412,"INCLINATION":98.8748,"RA_OF_ASC_NODE":29.8458,"ARG_OF_PERICENTER":301.7244,"MEAN_ANOMALY":211.5926,"EPHEMERIS_TYPE":0,"CLASSIFICATION_TYPE":"U","NORAD_CAT_ID":31559,"ELEMENT_SET_NO":999,"REV_AT_EPOCH":98766,"BSTAR":0.0022437,"MEAN_MOTION_DOT":0.00012274,"MEAN_MOTION_DDOT":0},{"OBJECT_NAME":"FENGYUN 1C DEB","OBJECT_ID":"1999-025BZB","EPOCH":"2026-03-02T21:14:42.864576","MEAN_MOTION":14.21249302,"ECCENTRICITY":0.0121878,"INCLINATION":98.5776,"RA_OF_ASC_NODE":100.781,"ARG_OF_PERICENTER":76.0343,"MEAN_ANOMALY":285.4353,"EPHEMERIS_TYPE":0,"CLASSIFICATION_TYPE":"U","NORAD_CAT_ID":31560,"ELEMENT_SET_NO":999,"REV_AT_EPOCH":97757,"BSTAR":6.7276e-5,"MEAN_MOTION_DOT":1.16e-6,"MEAN_MOTION_DDOT":0},{"OBJECT_NAME":"FENGYUN 1C DEB","OBJECT_ID":"1999-025BZC","EPOCH":"2026-03-06T05:29:33.080640","MEAN_MOTION":14.02894938,"ECCENTRICITY":0.00557256,"INCLINATION":98.7227,"RA_OF_ASC_NODE":62.7404,"ARG_OF_PERICENTER":310.5948,"MEAN_ANOMALY":111.9799,"EPHEMERIS_TYPE":0,"CLASSIFICATION_TYPE":"U","NORAD_CAT_ID":31561,"ELEMENT_SET_NO":999,"REV_AT_EPOCH":96349,"BSTAR":0.00056875946,"MEAN_MOTION_DOT":8.51e-6,"MEAN_MOTION_DDOT":0},{"OBJECT_NAME":"FENGYUN 1C DEB","OBJECT_ID":"1999-025BZD","EPOCH":"2026-03-03T21:19:50.815776","MEAN_MOTION":14.42696577,"ECCENTRICITY":0.0056601,"INCLINATION":99.2652,"RA_OF_ASC_NODE":226.3438,"ARG_OF_PERICENTER":45.9538,"MEAN_ANOMALY":314.6291,"EPHEMERIS_TYPE":0,"CLASSIFICATION_TYPE":"U","NORAD_CAT_ID":31562,"ELEMENT_SET_NO":999,"REV_AT_EPOCH":98160,"BSTAR":0.001069,"MEAN_MOTION_DOT":3.576e-5,"MEAN_MOTION_DDOT":0},{"OBJECT_NAME":"FENGYUN 1C DEB","OBJECT_ID":"1999-025BZE","EPOCH":"2026-03-06T10:06:00.615744","MEAN_MOTION":14.66054875,"ECCENTRICITY":0.01121533,"INCLINATION":98.9603,"RA_OF_ASC_NODE":231.4128,"ARG_OF_PERICENTER":180.9002,"MEAN_ANOMALY":179.2014,"EPHEMERIS_TYPE":0,"CLASSIFICATION_TYPE":"U","NORAD_CAT_ID":31563,"ELEMENT_SET_NO":999,"REV_AT_EPOCH":99770,"BSTAR":0.0012753078,"MEAN_MOTION_DOT":7.626e-5,"MEAN_MOTION_DDOT":0}]
